{"type": "FeatureCollection", "features": [ {"type": "Feature", "properties": {"norad_id": 34464, "name": "COSMOS 2251 DEB", "group": "cosmos-2251-debris", "lat": 8.479935559810945, "lon": -95.50548035324033, "alt_km": 489.21595295903717, "timestamp": "2025-12-08T15:42:50.190472+00:00", "meta": {"OBJECT_NAME": "COSMOS 2251 DEB", "OBJECT_ID": "1993-036TH", "EPOCH": "2025-12-08T07:05:55.195872", "MEAN_MOTION": 15.26079128, "ECCENTRICITY": 0.00168478, "INCLINATION": 73.9909, "RA_OF_ASC_NODE": 87.7092, "ARG_OF_PERICENTER": 263.5735, "MEAN_ANOMALY": 96.3547, "EPHEMERIS_TYPE": 0, "CLASSIFICATION_TYPE": "U", "NORAD_CAT_ID": 34464, "ELEMENT_SET_NO": 999, "REV_AT_EPOCH": 89772, "BSTAR": 0.0034316084, "MEAN_MOTION_DOT": 0.00089874, "MEAN_MOTION_DDOT": 0}, "tle": {"line1": "1 34464U 93036TH  25342.29577773  .00089874  00000+0  34316-2 0  9999", "line2": "2 34464  73.9909  87.7092 0016847 263.5735  96.3547 15.26079128897728"}}, "geometry": {"type": "Point", "coordinates": [-95.50548035324033, 8.479935559810945]}}, {"type": "Feature", "properties": {"norad_id": 34468, "name": "COSMOS 2251 DEB", "group": "cosmos-2251-debris", "lat": 60.240745030216225, "lon": -85.23649015180996, "alt_km": 776.5016422351937, "timestamp": "2025-12-08T15:42:50.190486+00:00", "meta": {"OBJECT_NAME": "COSMOS 2251 DEB", "OBJECT_ID": "1993-036TM", "EPOCH": "2025-12-08T03:34:01.409952", "MEAN_MOTION": 14.47605132, "ECCENTRICITY": 0.00763524, "INCLINATION": 74.0128, "RA_OF_ASC_NODE": 125.8051, "ARG_OF_PERICENTER": 271.6632, "MEAN_ANOMALY": 87.5783, "EPHEMERIS_TYPE": 0, "CLASSIFICATION_TYPE": "U", "NORAD_CAT_ID": 34468, "ELEMENT_SET_NO": 999, "REV_AT_EPOCH": 88395, "BSTAR": 0.0004977959, "MEAN_MOTION_DOT": 1.872e-05, "MEAN_MOTION_DDOT": 0}, "tle": {"line1": "1 34468U 93036TM  25342.14862743  .00001872  00000+0  49780-3 0  9995", "line2": "2 34468  74.0128 125.8051 0076352 271.6632  87.5783 14.47605132883955"}}, "geometry": {"type": "Point", "coordinates": [-85.23649015180996, 60.240745030216225]}}, {"type": "Feature", "properties": {"norad_id": 34472, "name": "COSMOS 2251 DEB", "group": "cosmos-2251-debris", "lat": -12.399231071499333, "lon": -71.54089556754447, "alt_km": 824.506138943997, "timestamp": "2025-12-08T15:42:50.190496+00:00", "meta": {"OBJECT_NAME": "COSMOS 2251 DEB", "OBJECT_ID": "1993-036TR", "EPOCH": "2025-12-07T14:13:07.496832", "MEAN_MOTION": 13.70317766, "ECCENTRICITY": 0.03280286, "INCLINATION": 74.0829, "RA_OF_ASC_NODE": 106.6088, "ARG_OF_PERICENTER": 238.7453, "MEAN_ANOMALY": 118.1152, "EPHEMERIS_TYPE": 0, "CLASSIFICATION_TYPE": "U", "NORAD_CAT_ID": 34472, "ELEMENT_SET_NO": 999, "REV_AT_EPOCH": 83656, "BSTAR": 0.001313652, "MEAN_MOTION_DOT": 1.672e-05, "MEAN_MOTION_DDOT": 0}, "tle": {"line1": "1 34472U 93036TR  25341.59244788  .00001672  00000+0  13137-2 0  9995", "line2": "2 34472  74.0829 106.6088 0328028 238.7453 118.1152 13.70317766836564"}}, "geometry": {"type": "Point", "coordinates": [-71.54089556754447, -12.399231071499333]}}, {"type": "Feature", "properties": {"norad_id": 34474, "name": "COSMOS 2251 DEB", "group": "cosmos-2251-debris", "lat": 17.64017481741451, "lon": 148.1016940958158, "alt_km": 926.1991422040992, "timestamp": "2025-12-08T15:42:50.190506+00:00", "meta": {"OBJECT_NAME": "COSMOS 2251 DEB", "OBJECT_ID": "1993-036TT", "EPOCH": "2025-12-08T01:37:12.859680", "MEAN_MOTION": 14.06364949, "ECCENTRICITY": 0.0198023, "INCLINATION": 74.078, "RA_OF_ASC_NODE": 334.3343, "ARG_OF_PERICENTER": 49.4072, "MEAN_ANOMALY": 18.0513, "EPHEMERIS_TYPE": 0, "CLASSIFICATION_TYPE": "U", "NORAD_CAT_ID": 34474, "ELEMENT_SET_NO": 999, "REV_AT_EPOCH": 85443, "BSTAR": 0.00209856, "MEAN_MOTION_DOT": 4.115e-05, "MEAN_MOTION_DDOT": 0}, "tle": {"line1": "1 34474U 93036TT  25342.06750995  .00004115  00000+0  20986-2 0  9997", "line2": "2 34474  74.0780 334.3343 0198023  49.4072  18.0513 14.06364949854430"}}, "geometry": {"type": "Point", "coordinates": [148.1016940958158, 17.64017481741451]}}, {"type": "Feature", "properties": {"norad_id": 34476, "name": "COSMOS 2251 DEB", "group": "cosmos-2251-debris", "lat": 47.78406416636398, "lon": -109.03822760736135, "alt_km": 1186.4802767027177, "timestamp": "2025-12-08T15:42:50.190516+00:00", "meta": {"OBJECT_NAME": "COSMOS 2251 DEB", "OBJECT_ID": "1993-036TV", "EPOCH": "2025-12-06T17:54:22.363488", "MEAN_MOTION": 13.81942148, "ECCENTRICITY": 0.0319344, "INCLINATION": 74.0061, "RA_OF_ASC_NODE": 92.6058, "ARG_OF_PERICENTER": 313.5001, "MEAN_ANOMALY": 43.9973, "EPHEMERIS_TYPE": 0, "CLASSIFICATION_TYPE": "U", "NORAD_CAT_ID": 34476, "ELEMENT_SET_NO": 999, "REV_AT_EPOCH": 83555, "BSTAR": 0.0048589185, "MEAN_MOTION_DOT": 7.676e-05, "MEAN_MOTION_DDOT": 0}, "tle": {"line1": "1 34476U 93036TV  25340.74609217  .00007676  00000+0  48589-2 0  9996", "line2": "2 34476  74.0061  92.6058 0319344 313.5001  43.9973 13.81942148835553"}}, "geometry": {"type": "Point", "coordinates": [-109.03822760736135, 47.78406416636398]}}, {"type": "Feature", "properties": {"norad_id": 34477, "name": "COSMOS 2251 DEB", "group": "cosmos-2251-debris", "lat": 4.744805689525676, "lon": 78.65225630212785, "alt_km": 714.4081320188261, "timestamp": "2025-12-08T15:42:50.190527+00:00", "meta": {"OBJECT_NAME": "COSMOS 2251 DEB", "OBJECT_ID": "1993-036TW", "EPOCH": "2025-12-08T07:44:16.756224", "MEAN_MOTION": 14.56811499, "ECCENTRICITY": 0.00769153, "INCLINATION": 73.9792, "RA_OF_ASC_NODE": 77.9186, "ARG_OF_PERICENTER": 265.8832, "MEAN_ANOMALY": 156.0898, "EPHEMERIS_TYPE": 0, "CLASSIFICATION_TYPE": "U", "NORAD_CAT_ID": 34477, "ELEMENT_SET_NO": 999, "REV_AT_EPOCH": 88561, "BSTAR": 0.0012698439, "MEAN_MOTION_DOT": 5.893e-05, "MEAN_MOTION_DDOT": 0}, "tle": {"line1": "1 34477U 93036TW  25342.32241616  .00005893  00000+0  12698-2 0  9999", "line2": "2 34477  73.9792  77.9186 0076915 265.8832 156.0898 14.56811499885617"}}, "geometry": {"type": "Point", "coordinates": [78.65225630212785, 4.744805689525676]}}, {"type": "Feature", "properties": {"norad_id": 34478, "name": "COSMOS 2251 DEB", "group": "cosmos-2251-debris", "lat": -32.882161567497256, "lon": -154.05105041094183, "alt_km": 526.9921137787978, "timestamp": "2025-12-08T15:42:50.190538+00:00", "meta": {"OBJECT_NAME": "COSMOS 2251 DEB", "OBJECT_ID": "1993-036TX", "EPOCH": "2025-12-08T02:09:28.527264", "MEAN_MOTION": 15.07431578, "ECCENTRICITY": 0.00356549, "INCLINATION": 74.0399, "RA_OF_ASC_NODE": 16.4473, "ARG_OF_PERICENTER": 238.6922, "MEAN_ANOMALY": 151.7867, "EPHEMERIS_TYPE": 0, "CLASSIFICATION_TYPE": "U", "NORAD_CAT_ID": 34478, "ELEMENT_SET_NO": 999, "REV_AT_EPOCH": 88903, "BSTAR": 0.0033503358, "MEAN_MOTION_DOT": 0.00051841, "MEAN_MOTION_DDOT": 0}, "tle": {"line1": "1 34478U 93036TX  25342.08991351  .00051841  00000+0  33503-2 0  9993", "line2": "2 34478  74.0399  16.4473 0035654 238.6922 151.7867 15.07431578889034"}}, "geometry": {"type": "Point", "coordinates": [-154.05105041094183, -32.882161567497256]}}, {"type": "Feature", "properties": {"norad_id": 34481, "name": "COSMOS 2251 DEB", "group": "cosmos-2251-debris", "lat": -13.378637196138623, "lon": -115.1409234133001, "alt_km": 749.7241781783296, "timestamp": "2025-12-08T15:42:50.190548+00:00", "meta": {"OBJECT_NAME": "COSMOS 2251 DEB", "OBJECT_ID": "1993-036UA", "EPOCH": "2025-12-08T06:41:40.210368", "MEAN_MOTION": 14.32524221, "ECCENTRICITY": 0.0070857, "INCLINATION": 73.9806, "RA_OF_ASC_NODE": 61.6291, "ARG_OF_PERICENTER": 236.8127, "MEAN_ANOMALY": 180.2341, "EPHEMERIS_TYPE": 0, "CLASSIFICATION_TYPE": "U", "NORAD_CAT_ID": 34481, "ELEMENT_SET_NO": 999, "REV_AT_EPOCH": 87385, "BSTAR": 0.001196436, "MEAN_MOTION_DOT": 3.31e-05, "MEAN_MOTION_DDOT": 0}, "tle": {"line1": "1 34481U 93036UA  25342.27893762  .00003310  00000+0  11964-2 0  9990", "line2": "2 34481  73.9806  61.6291 0070857 236.8127 180.2341 14.32524221873852"}}, "geometry": {"type": "Point", "coordinates": [-115.1409234133001, -13.378637196138623]}}, {"type": "Feature", "properties": {"norad_id": 34482, "name": "COSMOS 2251 DEB", "group": "cosmos-2251-debris", "lat": -6.754362633676879, "lon": 53.443659160321545, "alt_km": 675.9152376166276, "timestamp": "2025-12-08T15:42:50.190559+00:00", "meta": {"OBJECT_NAME": "COSMOS 2251 DEB", "OBJECT_ID": "1993-036UB", "EPOCH": "2025-12-08T02:21:06.240960", "MEAN_MOTION": 14.69029885, "ECCENTRICITY": 0.00454113, "INCLINATION": 74.0365, "RA_OF_ASC_NODE": 232.5782, "ARG_OF_PERICENTER": 293.4451, "MEAN_ANOMALY": 190.7486, "EPHEMERIS_TYPE": 0, "CLASSIFICATION_TYPE": "U", "NORAD_CAT_ID": 34482, "ELEMENT_SET_NO": 999, "REV_AT_EPOCH": 88119, "BSTAR": 0.0024352149, "MEAN_MOTION_DOT": 0.00014512, "MEAN_MOTION_DDOT": 0}, "tle": {"line1": "1 34482U 93036UB  25342.09798890  .00014512  00000+0  24352-2 0  9998", "line2": "2 34482  74.0365 232.5782 0045411 293.4451 190.7486 14.69029885881194"}}, "geometry": {"type": "Point", "coordinates": [53.443659160321545, -6.754362633676879]}}, {"type": "Feature", "properties": {"norad_id": 34544, "name": "COSMOS 2251 DEB", "group": "cosmos-2251-debris", "lat": -39.28818706612782, "lon": -163.01093059128027, "alt_km": 996.3061451222293, "timestamp": "2025-12-08T15:42:50.190570+00:00", "meta": {"OBJECT_NAME": "COSMOS 2251 DEB", "OBJECT_ID": "1993-036UE", "EPOCH": "2025-12-08T02:32:15.563616", "MEAN_MOTION": 13.54658928, "ECCENTRICITY": 0.03844146, "INCLINATION": 73.9149, "RA_OF_ASC_NODE": 211.5315, "ARG_OF_PERICENTER": 240.8263, "MEAN_ANOMALY": 277.3195, "EPHEMERIS_TYPE": 0, "CLASSIFICATION_TYPE": "U", "NORAD_CAT_ID": 34544, "ELEMENT_SET_NO": 999, "REV_AT_EPOCH": 82819, "BSTAR": 0.00035904708, "MEAN_MOTION_DOT": 3.7e-06, "MEAN_MOTION_DDOT": 0}, "tle": {"line1": "1 34544U 93036UE  25342.10573569  .00000370  00000+0  35905-3 0  9997", "line2": "2 34544  73.9149 211.5315 0384414 240.8263 277.3195 13.54658928828195"}}, "geometry": {"type": "Point", "coordinates": [-163.01093059128027, -39.28818706612782]}}]}